NUSAT-1 (FRESCO)        
1 41557U 16033B   21346.88958948  .00002245  00000+0  78228-4 0  9993
2 41557  97.3926  79.9503 0011431 328.1439 169.4846 15.30662235308814
BEESAT-4                
1 41619U 16040W   21346.87503142  .00002239  00000+0  87592-4 0  9998
2 41619  97.2471  37.8568 0011813  64.8394 295.4069 15.26795055292225
CAS-2T & KS-1Q          
1 41847U 16066G   21346.92170948  .00000083  00000+0  22176-4 0  9991
2 41847  98.5791  46.5809 0365714  47.6271 315.5269 14.38299105267536
NAYIF-1 (EO-88)         
1 42017U 17008BX  21346.13453880  .00002334  00000+0  83869-4 0  9997
2 42017  97.2964  50.4967 0005588 180.8759 179.2473 15.29625815268405
ZHUHAI-1 02 (CAS-4B)    
1 42759U 17034B   21346.90945780  .00000620  00000+0  50069-4 0  9991
2 42759  43.0180 279.7422 0007784 209.2230 200.9149 15.10607702248134
ZHUHAI-1 01 (CAS-4A)    
1 42761U 17034D   21346.90143212  .00000632  00000+0  50677-4 0  9992
2 42761  43.0180 278.7127 0008647 209.8775 261.9126 15.10694819248134
MAX VALIER SAT          
1 42778U 17036P   21346.11233191  .00001271  00000+0  54578-4 0  9995
2 42778  97.2332  28.7515 0009895 268.9061  91.1043 15.24416931248342
RADFXSAT (FOX-1B)       
1 43017U 17073E   21346.51345913  .00000792  00000+0  65011-4 0  9994
2 43017  97.6924 243.3143 0254826  79.2009 283.7774 14.80002239219456
FOX-1D (AO-92)          
1 43137U 18004AC  21346.92613241  .00001689  00000+0  68057-4 0  9998
2 43137  97.3912  59.0632 0007155 308.2518  51.8076 15.26218004217872
DIWATA-2B               
1 43678U 18084H   21346.80491742  .00000555  00000+0  60657-4 0  9992
2 43678  97.9469 113.2660 0009935 173.4817 186.6524 14.91852879170026
ES'HAIL 2               
1 43700U 18090A   21346.85295163  .00000151  00000+0  00000+0 0  9992
2 43700   0.0258  82.4710 0002233 200.3572 131.8075  1.00274019 11159
FOX-1CLIFF (AO-95)      
1 43770U 18099N   21346.90308616 -.00000018  00000+0  34560-5 0  9999
2 43770  97.6467  52.9831 0014521 175.4786 184.6569 14.95585718165128
ITASAT 1                
1 43786U 18099AE  21346.92286754  .00000380  00000+0  39047-4 0  9991
2 43786  97.6486  53.8039 0015475 168.7277 191.4294 14.95842115165167
JY1SAT (JO-97)          
1 43803U 18099AX  21346.92137524  .00000455  00000+0  45411-4 0  9996
2 43803  97.6448  53.5400 0015412 168.4919 191.6658 14.96144474165176
UWE-4                   
1 43880U 18111E   21346.71764983 -.00000027  00000+0  27083-5 0  9990
2 43880  97.6782 251.3090 0010888 223.3013 136.7354 14.97172690161758
NEXUS (FO-99)           
1 43937U 19003F   21346.84925151  .00001997  00000+0  77683-4 0  9990
2 43937  97.1561  22.7826 0024263  98.7392 261.6597 15.26884092161479
PSAT2 (NO-104)          
1 44354U 19036R   21345.81461339  .00015039  00000+0  17897-3 0  9991
2 44354  28.5269  18.6185 0296489  48.8133 313.7639 15.21258870135930
BRICSAT2 (NO-103)       
1 44355U 19036S   21345.93293115  .00035787 -60126-5  27722-3 0  9992
2 44355  28.5246 295.7420 0199068 183.7758 176.1340 15.47717504136767
JAISAT-1                
1 44419U 19038F   21346.87568770  .00001508  00000+0  85019-4 0  9997
2 44419  97.6131 311.2386 0022244  58.9890 301.3522 15.14563263134794
DUCHIFAT-3              
1 44854U 19089C   21346.76777996  .00000673  00000+0  59597-4 0  9990
2 44854  36.9624 125.8774 0006672 148.2151 211.8979 14.99848334109880
CAS-6 (TO-108)          
1 44881U 19093C   21346.84327083  .00000117  00000+0  21576-4 0  9991
2 44881  97.9118  63.6048 0016485  74.8006 285.5012 14.81521131107141
RS-44 & BREEZE-KM R/B   
1 44909U 19096E   21346.96135630  .00000021  00000+0  35816-4 0  9999
2 44909  82.5212 354.2002 0218074  36.0272 325.5305 12.79711398 91658
ORBITAL FACTORY 2 (OF-2)
1 45113U 19071C   21346.92299949  .00003373  00000+0  99462-4 0  9990
2 45113  51.6410 251.0124 0010700 213.1591 146.8723 15.37893154104617
HUSKYSAT-1 (HO-107)     
1 45119U 19071J   21346.93950335  .00003815  00000+0  11161-3 0  9990
2 45119  51.6407 250.3608 0010281 209.5467 150.4937 15.37745893104617
BY70-2                  
1 45857U 20042B   21346.84681921  .00001557  00000+0  22450-3 0  9995
2 45857  97.9731  60.6959 0010285   6.5390 353.5945 14.77674735 77886
SALSAT                  
1 46495U 20068K   21346.88220918  .00000239  00000+0  21934-4 0  9994
2 46495  97.7103 283.4789 0016550 181.8661 178.2505 15.03709402 66142
BY70-3                  
1 46839U 20079N   21346.93527682  .00003704  00000+0  10956-3 0  9993
2 46839  97.2240  57.2674 0005264 290.8316 183.2656 15.35522748 61575
RADFXSAT-2 (AO-109)     
1 47311U 21002C   21346.71330856  .00001007  00000+0  54407-4 0  9991
2 47311  60.6861 343.5015 0034094 138.0706 222.3001 15.22539055 50003
UVSQ-SAT                
1 47438U 21006AB  21346.63742200  .00001165  00000+0  68168-4 0  9990
2 47438  97.4659  44.5051 0012118 195.8204 164.2651 15.13725704 49002
DIY-1 (ARDUIQUBE)       
1 47963U 21022AH  21346.68048108  .00003243  00000+0  21065-3 0  9995
2 47963  97.5452 245.8347 0020626  56.7149 303.6052 15.08562838 38752
